{
"type": "FeatureCollection",
"name": "osm tourism points",
"crs": { "type": "name", "properties": { "name": "urn:ogc:def:crs:OGC:1.3:CRS84" } },
"features": [
{ "type": "Feature", "properties": { "full_id": "n3188977238", "osm_id": "3188977238", "osm_type": "node", "tourism": "attraction", "entrance": null, "door": null, "contact:phone": null, "attraction": null, "wheelchair": null, "operator": null, "website": "http://www.stlouiswalkoffame.org/inductees/miles-davis.html", "subject:wikipedia": "en:Miles Davis", "subject:wikidata": "Q93341", "name": "Miles Davis", "memorial": "star", "historic": "memorial", "addr:street": "Delmar Boulevard", "addr:state": "MO", "addr:postcode": "63130", "addr:housenumber": "6314", "addr:city": "University City" }, "geometry": { "type": "Point", "coordinates": [ -90.3025569, 38.6556375 ] } },
{ "type": "Feature", "properties": { "full_id": "n3188977239", "osm_id": "3188977239", "osm_type": "node", "tourism": "attraction", "entrance": null, "door": null, "contact:phone": null, "attraction": null, "wheelchair": null, "operator": null, "website": "http://www.stlouiswalkoffame.org/inductees/yogi-berra.html", "subject:wikipedia": "en:Yogi Berra", "subject:wikidata": "Q367566", "name": "Yogi Berra", "memorial": "star", "historic": "memorial", "addr:street": "Delmar Boulevard", "addr:state": "MO", "addr:postcode": "63130", "addr:housenumber": "6322", "addr:city": "University City" }, "geometry": { "type": "Point", "coordinates": [ -90.3027728, 38.6556524 ] } },
{ "type": "Feature", "properties": { "full_id": "n3188977325", "osm_id": "3188977325", "osm_type": "node", "tourism": "attraction", "entrance": null, "door": null, "contact:phone": null, "attraction": null, "wheelchair": null, "operator": null, "website": "http://www.stlouiswalkoffame.org/inductees/kate-chopin.html", "subject:wikipedia": "en:Kate Chopin", "subject:wikidata": "Q230476", "name": "Kate Chopin", "memorial": "star", "historic": "memorial", "addr:street": "Delmar Boulevard", "addr:state": "MO", "addr:postcode": "63130", "addr:housenumber": "6310", "addr:city": "University City" }, "geometry": { "type": "Point", "coordinates": [ -90.3024617, 38.6556283 ] } },
{ "type": "Feature", "properties": { "full_id": "n3188977541", "osm_id": "3188977541", "osm_type": "node", "tourism": "attraction", "entrance": null, "door": null, "contact:phone": null, "attraction": null, "wheelchair": null, "operator": null, "website": "http://www.stlouiswalkoffame.org/inductees/mary-wickes.html", "subject:wikipedia": null, "subject:wikidata": null, "name": "Mary Wickes", "memorial": "star", "historic": "memorial", "addr:street": "Delmar Boulevard", "addr:state": "MO", "addr:postcode": "63130", "addr:housenumber": "6304", "addr:city": "University City" }, "geometry": { "type": "Point", "coordinates": [ -90.3021331, 38.655598 ] } },
{ "type": "Feature", "properties": { "full_id": "n3188977602", "osm_id": "3188977602", "osm_type": "node", "tourism": "attraction", "entrance": null, "door": null, "contact:phone": null, "attraction": null, "wheelchair": null, "operator": null, "website": "http://www.stlouiswalkoffame.org/inductees/joe-garagiola.html", "subject:wikipedia": "en:Joe Garagiola, Sr.", "subject:wikidata": "Q3180071", "name": "Joe Garagiola", "memorial": "star", "historic": "memorial", "addr:street": "Delmar Boulevard", "addr:state": "MO", "addr:postcode": "63130", "addr:housenumber": "6328", "addr:city": "University City" }, "geometry": { "type": "Point", "coordinates": [ -90.3028687, 38.6556634 ] } },
{ "type": "Feature", "properties": { "full_id": "n3188978060", "osm_id": "3188978060", "osm_type": "node", "tourism": "attraction", "entrance": null, "door": null, "contact:phone": null, "attraction": null, "wheelchair": null, "operator": null, "website": "http://www.stlouiswalkoffame.org/inductees/john-danforth.html", "subject:wikipedia": "en:John Danforth", "subject:wikidata": "Q1287554", "name": "John Danforth", "memorial": "star", "historic": "memorial", "addr:street": "Delmar Boulevard", "addr:state": "MO", "addr:postcode": "63130", "addr:housenumber": "6308", "addr:city": "University City" }, "geometry": { "type": "Point", "coordinates": [ -90.3023527, 38.6556184 ] } },
{ "type": "Feature", "properties": { "full_id": "n3188978254", "osm_id": "3188978254", "osm_type": "node", "tourism": "attraction", "entrance": null, "door": null, "contact:phone": null, "attraction": null, "wheelchair": null, "operator": null, "website": "http://www.stlouiswalkoffame.org/inductees/robert-mcferrin-sr.html", "subject:wikipedia": "en:Robert McFerrin", "subject:wikidata": "Q7347517", "name": "Robert McFerrin, Sr.", "memorial": "star", "historic": "memorial", "addr:street": "Delmar Boulevard", "addr:state": "MO", "addr:postcode": "63130", "addr:housenumber": "6300", "addr:city": "University City" }, "geometry": { "type": "Point", "coordinates": [ -90.302078, 38.655592 ] } },
{ "type": "Feature", "properties": { "full_id": "n3188978255", "osm_id": "3188978255", "osm_type": "node", "tourism": "attraction", "entrance": null, "door": null, "contact:phone": null, "attraction": null, "wheelchair": null, "operator": null, "website": "http://www.stlouiswalkoffame.org/inductees/elijah-lovejoy.html", "subject:wikipedia": "en:Elijah Parish Lovejoy", "subject:wikidata": "Q1227522", "name": "Elijah Lovejoy", "memorial": "star", "historic": "memorial", "addr:street": "Delmar Boulevard", "addr:state": "MO", "addr:postcode": "63130", "addr:housenumber": "6332", "addr:city": "University City" }, "geometry": { "type": "Point", "coordinates": [ -90.3029706, 38.6556734 ] } },
{ "type": "Feature", "properties": { "full_id": "n3188978432", "osm_id": "3188978432", "osm_type": "node", "tourism": "attraction", "entrance": null, "door": null, "contact:phone": null, "attraction": null, "wheelchair": null, "operator": null, "website": "http://www.stlouiswalkoffame.org/inductees/david-sanborn.html", "subject:wikipedia": "en:David Sanborn", "subject:wikidata": "Q178112", "name": "David Sanborn", "memorial": "star", "historic": "memorial", "addr:street": "Delmar Boulevard", "addr:state": "MO", "addr:postcode": "63130", "addr:housenumber": "6306", "addr:city": "University City" }, "geometry": { "type": "Point", "coordinates": [ -90.3022434, 38.6556092 ] } },
{ "type": "Feature", "properties": { "full_id": "n3189018461", "osm_id": "3189018461", "osm_type": "node", "tourism": "attraction", "entrance": null, "door": null, "contact:phone": null, "attraction": null, "wheelchair": null, "operator": null, "website": "http://www.stlouiswalkoffame.org/inductees/leonard-slatkin.html", "subject:wikipedia": "en:Leonard Slatkin", "subject:wikidata": "Q509870", "name": "Leonard Slatkin", "memorial": "star", "historic": "memorial", "addr:street": "Delmar Boulevard", "addr:state": "MO", "addr:postcode": "63130", "addr:housenumber": "6318", "addr:city": "University City" }, "geometry": { "type": "Point", "coordinates": [ -90.3026648, 38.6556451 ] } },
{ "type": "Feature", "properties": { "full_id": "n3189020061", "osm_id": "3189020061", "osm_type": "node", "tourism": "attraction", "entrance": null, "door": null, "contact:phone": null, "attraction": null, "wheelchair": null, "operator": null, "website": "http://www.stlouiswalkoffame.org/inductees/harold-ramis.html", "subject:wikipedia": "en:Harold Ramis", "subject:wikidata": "Q286890", "name": "Harold Ramis", "memorial": "star", "historic": "memorial", "addr:street": "Delmar Boulevard", "addr:state": "MO", "addr:postcode": "63130", "addr:housenumber": "6338", "addr:city": "University City" }, "geometry": { "type": "Point", "coordinates": [ -90.303039, 38.6556802 ] } },
{ "type": "Feature", "properties": { "full_id": "n3678226098", "osm_id": "3678226098", "osm_type": "node", "tourism": "attraction", "entrance": null, "door": null, "contact:phone": null, "attraction": null, "wheelchair": null, "operator": "St. Louis Zoo", "website": null, "subject:wikipedia": null, "subject:wikidata": null, "name": "Discovery Corner", "memorial": null, "historic": null, "addr:street": null, "addr:state": null, "addr:postcode": null, "addr:housenumber": null, "addr:city": null }, "geometry": { "type": "Point", "coordinates": [ -90.2921571, 38.635609 ] } },
{ "type": "Feature", "properties": { "full_id": "n3678262919", "osm_id": "3678262919", "osm_type": "node", "tourism": "attraction", "entrance": null, "door": null, "contact:phone": null, "attraction": null, "wheelchair": null, "operator": "St. Louis Zoo", "website": null, "subject:wikipedia": null, "subject:wikidata": null, "name": "Capybara and Giant Anteater", "memorial": null, "historic": null, "addr:street": null, "addr:state": null, "addr:postcode": null, "addr:housenumber": null, "addr:city": null }, "geometry": { "type": "Point", "coordinates": [ -90.293056, 38.6342125 ] } },
{ "type": "Feature", "properties": { "full_id": "n3678289972", "osm_id": "3678289972", "osm_type": "node", "tourism": "attraction", "entrance": null, "door": null, "contact:phone": null, "attraction": null, "wheelchair": null, "operator": "St. Louis Zoo", "website": null, "subject:wikipedia": null, "subject:wikidata": null, "name": "Conservation School exhibit", "memorial": null, "historic": null, "addr:street": null, "addr:state": null, "addr:postcode": null, "addr:housenumber": null, "addr:city": null }, "geometry": { "type": "Point", "coordinates": [ -90.2944118, 38.6344718 ] } },
{ "type": "Feature", "properties": { "full_id": "n3678289978", "osm_id": "3678289978", "osm_type": "node", "tourism": "attraction", "entrance": null, "door": null, "contact:phone": null, "attraction": null, "wheelchair": null, "operator": "St. Louis Zoo", "website": null, "subject:wikipedia": null, "subject:wikidata": null, "name": "Sun Bear", "memorial": null, "historic": null, "addr:street": null, "addr:state": null, "addr:postcode": null, "addr:housenumber": null, "addr:city": null }, "geometry": { "type": "Point", "coordinates": [ -90.2930365, 38.6347594 ] } },
{ "type": "Feature", "properties": { "full_id": "n3679380237", "osm_id": "3679380237", "osm_type": "node", "tourism": "attraction", "entrance": null, "door": null, "contact:phone": null, "attraction": null, "wheelchair": null, "operator": null, "website": null, "subject:wikipedia": null, "subject:wikidata": null, "name": "North America River Otter", "memorial": null, "historic": null, "addr:street": null, "addr:state": null, "addr:postcode": null, "addr:housenumber": null, "addr:city": null }, "geometry": { "type": "Point", "coordinates": [ -90.2888008, 38.6343511 ] } },
{ "type": "Feature", "properties": { "full_id": "n3898410418", "osm_id": "3898410418", "osm_type": "node", "tourism": "attraction", "entrance": null, "door": null, "contact:phone": null, "attraction": null, "wheelchair": null, "operator": null, "website": null, "subject:wikipedia": null, "subject:wikidata": null, "name": "Sebilj Fountain", "memorial": null, "historic": null, "addr:street": null, "addr:state": null, "addr:postcode": null, "addr:housenumber": null, "addr:city": null }, "geometry": { "type": "Point", "coordinates": [ -90.2678173, 38.580525 ] } },
{ "type": "Feature", "properties": { "full_id": "n4756974189", "osm_id": "4756974189", "osm_type": "node", "tourism": "attraction", "entrance": null, "door": null, "contact:phone": null, "attraction": null, "wheelchair": null, "operator": null, "website": null, "subject:wikipedia": null, "subject:wikidata": null, "name": "Anheuser-Busch Brewery Tours", "memorial": null, "historic": null, "addr:street": null, "addr:state": null, "addr:postcode": null, "addr:housenumber": null, "addr:city": null }, "geometry": { "type": "Point", "coordinates": [ -90.2144394, 38.5992335 ] } },
{ "type": "Feature", "properties": { "full_id": "n4763054238", "osm_id": "4763054238", "osm_type": "node", "tourism": "attraction", "entrance": null, "door": null, "contact:phone": null, "attraction": null, "wheelchair": null, "operator": null, "website": null, "subject:wikipedia": null, "subject:wikidata": null, "name": "Paddleboating at the Boathouse", "memorial": null, "historic": null, "addr:street": null, "addr:state": null, "addr:postcode": null, "addr:housenumber": null, "addr:city": null }, "geometry": { "type": "Point", "coordinates": [ -90.2851258, 38.6399635 ] } },
{ "type": "Feature", "properties": { "full_id": "n5258156289", "osm_id": "5258156289", "osm_type": "node", "tourism": "attraction", "entrance": null, "door": null, "contact:phone": null, "attraction": null, "wheelchair": null, "operator": null, "website": null, "subject:wikipedia": null, "subject:wikidata": null, "name": "Bandstand", "memorial": null, "historic": null, "addr:street": null, "addr:state": null, "addr:postcode": null, "addr:housenumber": null, "addr:city": null }, "geometry": { "type": "Point", "coordinates": [ -90.2166402, 38.6155751 ] } },
{ "type": "Feature", "properties": { "full_id": "n5258173709", "osm_id": "5258173709", "osm_type": "node", "tourism": "attraction", "entrance": null, "door": null, "contact:phone": null, "attraction": null, "wheelchair": "yes", "operator": null, "website": null, "subject:wikipedia": null, "subject:wikidata": null, "name": "HMS Acteon Antique Guns", "memorial": null, "historic": null, "addr:street": null, "addr:state": null, "addr:postcode": null, "addr:housenumber": null, "addr:city": null }, "geometry": { "type": "Point", "coordinates": [ -90.2160654, 38.6163356 ] } },
{ "type": "Feature", "properties": { "full_id": "n7863293647", "osm_id": "7863293647", "osm_type": "node", "tourism": "attraction", "entrance": null, "door": null, "contact:phone": null, "attraction": "big_wheel", "wheelchair": null, "operator": null, "website": "https://www.thestlouiswheel.com/", "subject:wikipedia": null, "subject:wikidata": null, "name": "The St. Louis Wheel", "memorial": null, "historic": null, "addr:street": null, "addr:state": null, "addr:postcode": null, "addr:housenumber": null, "addr:city": null }, "geometry": { "type": "Point", "coordinates": [ -90.2095694, 38.6277479 ] } },
{ "type": "Feature", "properties": { "full_id": "n8983940559", "osm_id": "8983940559", "osm_type": "node", "tourism": "attraction", "entrance": null, "door": null, "contact:phone": "(314) 877-1309", "attraction": null, "wheelchair": null, "operator": "Missouri Department of Conservation", "website": null, "subject:wikipedia": null, "subject:wikidata": null, "name": "Forest Park Fish Hatchery", "memorial": null, "historic": null, "addr:street": null, "addr:state": null, "addr:postcode": null, "addr:housenumber": null, "addr:city": null }, "geometry": { "type": "Point", "coordinates": [ -90.2715015, 38.6427355 ] } },
{ "type": "Feature", "properties": { "full_id": "n9142775817", "osm_id": "9142775817", "osm_type": "node", "tourism": "attraction", "entrance": null, "door": null, "contact:phone": null, "attraction": null, "wheelchair": null, "operator": null, "website": null, "subject:wikipedia": null, "subject:wikidata": null, "name": "Gateway Arch Riverboats", "memorial": null, "historic": null, "addr:street": null, "addr:state": null, "addr:postcode": null, "addr:housenumber": null, "addr:city": null }, "geometry": { "type": "Point", "coordinates": [ -90.1836635, 38.6241716 ] } },
{ "type": "Feature", "properties": { "full_id": "n9187915653", "osm_id": "9187915653", "osm_type": "node", "tourism": null, "entrance": "main", "door": "hinged", "contact:phone": null, "attraction": null, "wheelchair": null, "operator": null, "website": null, "subject:wikipedia": null, "subject:wikidata": null, "name": null, "memorial": null, "historic": null, "addr:street": null, "addr:state": null, "addr:postcode": null, "addr:housenumber": null, "addr:city": null }, "geometry": { "type": "Point", "coordinates": [ -90.2802772, 38.6350674 ] } }
]
}
