{
"type": "FeatureCollection",
"name": "osm event conference center poly",
"crs": { "type": "name", "properties": { "name": "urn:ogc:def:crs:OGC:1.3:CRS84" } },
"features": [
{ "type": "Feature", "properties": { "full_id": "w108706999", "osm_id": "108706999", "osm_type": "way", "amenity": "conference_centre", "social_centre:for": null, "phone": null, "opening_hours": null, "leisure": null, "brand:wikipedia": null, "brand:wikidata": null, "brand": null, "wikipedia": "en:America's Center", "wikidata": "Q4742521", "website": "https://explorestlouis.com/meetings-conventions/americas-center/", "operator": "Marriott Hotels", "name": "Americaâ€™s Center Convention Complex", "building:levels": "3", "building": "yes", "addr:street": "Washington Avenue", "addr:state": "MO", "addr:postcode": "63103", "addr:housenumber": "823", "addr:city": "Saint Louis" }, "geometry": { "type": "MultiPolygon", "coordinates": [ [ [ [ -90.1922111, 38.6309881 ], [ -90.192272, 38.6310011 ], [ -90.1922569, 38.6310444 ], [ -90.192195, 38.6310312 ], [ -90.1921582, 38.6311365 ], [ -90.192197, 38.6311447 ], [ -90.1921197, 38.631366 ], [ -90.1922003, 38.6314507 ], [ -90.1922507, 38.6314766 ], [ -90.1923121, 38.6314916 ], [ -90.1922746, 38.6315857 ], [ -90.1922828, 38.6315877 ], [ -90.1922702, 38.6316194 ], [ -90.1923025, 38.6316359 ], [ -90.191399, 38.6342378 ], [ -90.1912462, 38.6342054 ], [ -90.1911624, 38.6341876 ], [ -90.1911476, 38.6342304 ], [ -90.1907332, 38.6341423 ], [ -90.1907223, 38.6341737 ], [ -90.1904308, 38.6341115 ], [ -90.190392, 38.6342226 ], [ -90.1896713, 38.6340687 ], [ -90.1896444, 38.6340995 ], [ -90.1894032, 38.6340484 ], [ -90.1896108, 38.6334509 ], [ -90.1897537, 38.6330396 ], [ -90.1898145, 38.6330525 ], [ -90.1900803, 38.6322876 ], [ -90.1899873, 38.6321738 ], [ -90.1900882, 38.6321466 ], [ -90.1902079, 38.6319461 ], [ -90.1901618, 38.6318386 ], [ -90.1910209, 38.6320258 ], [ -90.1912058, 38.631508 ], [ -90.1903351, 38.6313182 ], [ -90.190288, 38.631308 ], [ -90.1905471, 38.6305824 ], [ -90.190799, 38.6306373 ], [ -90.1913451, 38.6309101 ], [ -90.1913634, 38.6308969 ], [ -90.1913908, 38.6308771 ], [ -90.1914294, 38.6308648 ], [ -90.1914706, 38.6308615 ], [ -90.1914978, 38.6308698 ], [ -90.1915259, 38.6308784 ], [ -90.1915596, 38.6308887 ], [ -90.1915845, 38.6309101 ], [ -90.1915967, 38.6309326 ], [ -90.1916083, 38.6309541 ], [ -90.1922318, 38.6309287 ], [ -90.1922111, 38.6309881 ] ] ] ] } },
{ "type": "Feature", "properties": { "full_id": "w201372564", "osm_id": "201372564", "osm_type": "way", "amenity": "events_venue", "social_centre:for": null, "phone": null, "opening_hours": null, "leisure": null, "brand:wikipedia": null, "brand:wikidata": null, "brand": null, "wikipedia": null, "wikidata": null, "website": "http://bbsjazzbluessoups.com/", "operator": null, "name": "BB's Jazz, Blues and Soups", "building:levels": null, "building": "yes", "addr:street": "South Broadway", "addr:state": "MO", "addr:postcode": "63101", "addr:housenumber": "700", "addr:city": "Saint Louis" }, "geometry": { "type": "MultiPolygon", "coordinates": [ [ [ [ -90.1921804, 38.6197437 ], [ -90.1921509, 38.6198212 ], [ -90.1917944, 38.6197249 ], [ -90.1918242, 38.6196516 ], [ -90.192161, 38.6197387 ], [ -90.1921804, 38.6197437 ] ] ] ] } },
{ "type": "Feature", "properties": { "full_id": "w201981607", "osm_id": "201981607", "osm_type": "way", "amenity": "community_centre", "social_centre:for": null, "phone": null, "opening_hours": null, "leisure": "sports_centre", "brand:wikipedia": "en:YMCA", "brand:wikidata": "Q157169", "brand": "YMCA", "wikipedia": null, "wikidata": null, "website": "http://www.ymcastlouis.org/", "operator": null, "name": "YMCA of Greater St. Louis", "building:levels": "10", "building": "yes", "addr:street": "Locust Street", "addr:state": "MO", "addr:postcode": "63103", "addr:housenumber": "1528", "addr:city": "Saint Louis" }, "geometry": { "type": "MultiPolygon", "coordinates": [ [ [ [ -90.2024274, 38.6312112 ], [ -90.2028566, 38.6313018 ], [ -90.2027121, 38.6317194 ], [ -90.2022424, 38.6316202 ], [ -90.202245, 38.6316127 ], [ -90.202273, 38.6315318 ], [ -90.2023135, 38.6315403 ], [ -90.2023641, 38.631394 ], [ -90.2023237, 38.6313855 ], [ -90.2023869, 38.6312026 ], [ -90.2024274, 38.6312112 ] ] ] ] } },
{ "type": "Feature", "properties": { "full_id": "w550734670", "osm_id": "550734670", "osm_type": "way", "amenity": "community_centre", "social_centre:for": null, "phone": null, "opening_hours": null, "leisure": null, "brand:wikipedia": null, "brand:wikidata": null, "brand": null, "wikipedia": null, "wikidata": null, "website": null, "operator": "Skinker DeBaliviere Community Council", "name": "Skinker DeBaliviere Community Council", "building:levels": null, "building": "yes", "addr:street": "Kingsbury Avenue", "addr:state": "MO", "addr:postcode": "63112", "addr:housenumber": "6008", "addr:city": "Saint Louis" }, "geometry": { "type": "MultiPolygon", "coordinates": [ [ [ [ -90.294607, 38.6520501 ], [ -90.2946278, 38.6518756 ], [ -90.2944776, 38.6518612 ], [ -90.2944476, 38.6520362 ], [ -90.294607, 38.6520501 ] ] ] ] } },
{ "type": "Feature", "properties": { "full_id": "w567193803", "osm_id": "567193803", "osm_type": "way", "amenity": "community_centre", "social_centre:for": null, "phone": null, "opening_hours": null, "leisure": null, "brand:wikipedia": null, "brand:wikidata": null, "brand": null, "wikipedia": null, "wikidata": null, "website": null, "operator": null, "name": null, "building:levels": null, "building": "yes", "addr:street": null, "addr:state": null, "addr:postcode": null, "addr:housenumber": null, "addr:city": null }, "geometry": { "type": "MultiPolygon", "coordinates": [ [ [ [ -90.2245705, 38.6414686 ], [ -90.2245989, 38.6413792 ], [ -90.2241908, 38.6412954 ], [ -90.22415, 38.6413176 ], [ -90.2241509, 38.6416343 ], [ -90.2242999, 38.6416336 ], [ -90.2243017, 38.6414735 ], [ -90.2242697, 38.6414735 ], [ -90.2242733, 38.6414278 ], [ -90.224299, 38.6414132 ], [ -90.2245705, 38.6414686 ] ] ] ] } },
{ "type": "Feature", "properties": { "full_id": "w570019470", "osm_id": "570019470", "osm_type": "way", "amenity": "community_centre", "social_centre:for": null, "phone": null, "opening_hours": null, "leisure": null, "brand:wikipedia": null, "brand:wikidata": null, "brand": null, "wikipedia": null, "wikidata": null, "website": null, "operator": null, "name": null, "building:levels": null, "building": "yes", "addr:street": null, "addr:state": null, "addr:postcode": null, "addr:housenumber": null, "addr:city": null }, "geometry": { "type": "MultiPolygon", "coordinates": [ [ [ [ -90.23811, 38.6931741 ], [ -90.2380724, 38.6931343 ], [ -90.2380536, 38.6931427 ], [ -90.2380081, 38.6930882 ], [ -90.2380295, 38.6930757 ], [ -90.2379946, 38.6930359 ], [ -90.2382199, 38.6929103 ], [ -90.2381797, 38.6928663 ], [ -90.2383111, 38.692791 ], [ -90.2385096, 38.693015 ], [ -90.2383755, 38.6930861 ], [ -90.2383621, 38.6930715 ], [ -90.2383085, 38.6931008 ], [ -90.2382843, 38.6930736 ], [ -90.23811, 38.6931741 ] ] ] ] } },
{ "type": "Feature", "properties": { "full_id": "w627473791", "osm_id": "627473791", "osm_type": "way", "amenity": "community_centre", "social_centre:for": null, "phone": "+13142555857", "opening_hours": "Tu-Th 12:00-20:00, Sa 12:00-16:00", "leisure": null, "brand:wikipedia": null, "brand:wikidata": null, "brand": null, "wikipedia": null, "wikidata": null, "website": "http://citysewingroom.com/", "operator": null, "name": "City Sewing Room", "building:levels": null, "building": "yes", "addr:street": "Arsenal Street", "addr:state": "MO", "addr:postcode": "63139", "addr:housenumber": "6700", "addr:city": "Saint Louis" }, "geometry": { "type": "MultiPolygon", "coordinates": [ [ [ [ -90.3035029, 38.6081486 ], [ -90.3034683, 38.6083536 ], [ -90.3033444, 38.6083408 ], [ -90.303379, 38.6081358 ], [ -90.3035029, 38.6081486 ] ] ] ] } },
{ "type": "Feature", "properties": { "full_id": "w720574486", "osm_id": "720574486", "osm_type": "way", "amenity": "social_centre", "social_centre:for": "veterans", "phone": null, "opening_hours": null, "leisure": null, "brand:wikipedia": "en:American Legion", "brand:wikidata": "Q468865", "brand": "American Legion", "wikipedia": null, "wikidata": null, "website": null, "operator": null, "name": "American Legion Post 15", "building:levels": null, "building": "yes", "addr:street": null, "addr:state": null, "addr:postcode": null, "addr:housenumber": null, "addr:city": null }, "geometry": { "type": "MultiPolygon", "coordinates": [ [ [ [ -90.2756949, 38.6151821 ], [ -90.2755993, 38.6151708 ], [ -90.2756298, 38.6150124 ], [ -90.2757254, 38.6150236 ], [ -90.2756949, 38.6151821 ] ] ] ] } },
{ "type": "Feature", "properties": { "full_id": "w997815105", "osm_id": "997815105", "osm_type": "way", "amenity": "social_centre", "social_centre:for": null, "phone": null, "opening_hours": null, "leisure": null, "brand:wikipedia": null, "brand:wikidata": null, "brand": null, "wikipedia": null, "wikidata": null, "website": null, "operator": null, "name": "Jefferson Hall", "building:levels": null, "building": "yes", "addr:street": "South Jefferson Avenue", "addr:state": "MO", "addr:postcode": "63118", "addr:housenumber": "3652", "addr:city": "Saint Louis" }, "geometry": { "type": "MultiPolygon", "coordinates": [ [ [ [ -90.2262479, 38.5880748 ], [ -90.2262303, 38.5881644 ], [ -90.2262042, 38.5881613 ], [ -90.2261838, 38.5882648 ], [ -90.2262129, 38.5882683 ], [ -90.2261974, 38.5883472 ], [ -90.2262212, 38.5883501 ], [ -90.2262057, 38.5884291 ], [ -90.2261877, 38.5884269 ], [ -90.2261745, 38.5884937 ], [ -90.225857, 38.5884555 ], [ -90.2258985, 38.5882446 ], [ -90.225867, 38.5882409 ], [ -90.2259077, 38.588034 ], [ -90.2262479, 38.5880748 ] ] ] ] } }
]
}
