{
"type": "FeatureCollection",
"name": "osm public transport station",
"crs": { "type": "name", "properties": { "name": "urn:ogc:def:crs:OGC:1.3:CRS84" } },
"features": [
{ "type": "Feature", "properties": { "full_id": "n355001376", "osm_id": "355001376", "osm_type": "node", "public_transport": "station", "tram": null, "train": null, "railway:ref": null, "iata": null, "alt_name": null, "bus": null, "amenity": null, "wheelchair": null, "toilets:wheelchair": null, "wikipedia": "en:Skinker station", "wikidata": "Q7535457", "station": "light_rail", "railway": "station", "operator": "Bi-State Development Agency", "network": "MetroLink", "name": "Skinker", "light_rail": "yes", "addr:street": "North Skinker Boulevard", "addr:state": "MO", "addr:postcode": "63130", "addr:housenumber": "260", "addr:city": "Saint Louis" }, "geometry": { "type": "Point", "coordinates": [ -90.3003768, 38.6493104 ] } },
{ "type": "Feature", "properties": { "full_id": "n565861185", "osm_id": "565861185", "osm_type": "node", "public_transport": "station", "tram": null, "train": null, "railway:ref": null, "iata": null, "alt_name": null, "bus": null, "amenity": null, "wheelchair": null, "toilets:wheelchair": null, "wikipedia": "en:Shrewsbury–Lansdowne I-44 station", "wikidata": "Q7503725", "station": "light_rail", "railway": "station", "operator": "Bi-State Development Agency", "network": "MetroLink", "name": "Shrewsbury-Lansdowne I-44", "light_rail": "yes", "addr:street": "Lansdowne Avenue", "addr:state": "MO", "addr:postcode": "63119", "addr:housenumber": "7201", "addr:city": "Saint Louis" }, "geometry": { "type": "Point", "coordinates": [ -90.319419, 38.5932563 ] } },
{ "type": "Feature", "properties": { "full_id": "n692717004", "osm_id": "692717004", "osm_type": "node", "public_transport": "station", "tram": null, "train": null, "railway:ref": null, "iata": null, "alt_name": null, "bus": null, "amenity": null, "wheelchair": null, "toilets:wheelchair": null, "wikipedia": "en:Delmar Loop station", "wikidata": "Q5254259", "station": "light_rail", "railway": "station", "operator": "Bi-State Development Agency", "network": "MetroLink", "name": "Delmar Loop", "light_rail": "yes", "addr:street": "Rosedale Avenue", "addr:state": "MO", "addr:postcode": "63112", "addr:housenumber": "660", "addr:city": "Saint Louis" }, "geometry": { "type": "Point", "coordinates": [ -90.2945571, 38.6556558 ] } },
{ "type": "Feature", "properties": { "full_id": "n1422137626", "osm_id": "1422137626", "osm_type": "node", "public_transport": "station", "tram": null, "train": null, "railway:ref": null, "iata": null, "alt_name": null, "bus": null, "amenity": null, "wheelchair": null, "toilets:wheelchair": null, "wikipedia": "en:Central West End station", "wikidata": "Q5062023", "station": "light_rail", "railway": "station", "operator": "Bi-State Development Agency", "network": "MetroLink", "name": "Central West End", "light_rail": "yes", "addr:street": "South Euclid Avenue", "addr:state": "MO", "addr:postcode": "63110", "addr:housenumber": "420", "addr:city": "Saint Louis" }, "geometry": { "type": "Point", "coordinates": [ -90.2621906, 38.6359219 ] } },
{ "type": "Feature", "properties": { "full_id": "n1422137629", "osm_id": "1422137629", "osm_type": "node", "public_transport": "station", "tram": null, "train": null, "railway:ref": null, "iata": null, "alt_name": null, "bus": null, "amenity": null, "wheelchair": "yes", "toilets:wheelchair": "no", "wikipedia": "en:Forest Park–DeBaliviere station", "wikidata": "Q5469071", "station": "light_rail", "railway": "station", "operator": "Bi-State Development Agency", "network": "MetroLink", "name": "Forest Park-DeBaliviere", "light_rail": "yes", "addr:street": "De Baliviere Avenue", "addr:state": "MO", "addr:postcode": "63112", "addr:housenumber": "250", "addr:city": "Saint Louis" }, "geometry": { "type": "Point", "coordinates": [ -90.284956, 38.6478189 ] } },
{ "type": "Feature", "properties": { "full_id": "n1422137631", "osm_id": "1422137631", "osm_type": "node", "public_transport": "station", "tram": null, "train": null, "railway:ref": null, "iata": null, "alt_name": null, "bus": null, "amenity": null, "wheelchair": null, "toilets:wheelchair": null, "wikipedia": "en:Grand station (MetroLink)", "wikidata": "Q5594214", "station": "light_rail", "railway": "station", "operator": "Bi-State Development Agency", "network": "MetroLink", "name": "Grand", "light_rail": "yes", "addr:street": "Scott Avenue", "addr:state": "MO", "addr:postcode": "63103", "addr:housenumber": "3560", "addr:city": "Saint Louis" }, "geometry": { "type": "Point", "coordinates": [ -90.2353523, 38.6294983 ] } },
{ "type": "Feature", "properties": { "full_id": "n1422456513", "osm_id": "1422456513", "osm_type": "node", "public_transport": "station", "tram": null, "train": null, "railway:ref": null, "iata": null, "alt_name": null, "bus": null, "amenity": null, "wheelchair": null, "toilets:wheelchair": null, "wikipedia": "en:Laclede's Landing station", "wikidata": "Q4785343", "station": "light_rail", "railway": "station", "operator": "Bi-State Development Agency", "network": "MetroLink", "name": "Laclede's Landing", "light_rail": "yes", "addr:street": "Washington Avenue", "addr:state": "MO", "addr:postcode": "63102", "addr:housenumber": "200", "addr:city": "Saint Louis" }, "geometry": { "type": "Point", "coordinates": [ -90.1838887, 38.6294376 ] } },
{ "type": "Feature", "properties": { "full_id": "n1422456527", "osm_id": "1422456527", "osm_type": "node", "public_transport": "station", "tram": null, "train": null, "railway:ref": null, "iata": null, "alt_name": null, "bus": null, "amenity": null, "wheelchair": "yes", "toilets:wheelchair": null, "wikipedia": "en:Civic Center station (MetroLink)", "wikidata": "Q5124278", "station": "light_rail", "railway": "station", "operator": "Bi-State Development Agency", "network": "MetroLink", "name": "Civic Center", "light_rail": "yes", "addr:street": "South 14th Street", "addr:state": "MO", "addr:postcode": "63103", "addr:housenumber": "401", "addr:city": "Saint Louis" }, "geometry": { "type": "Point", "coordinates": [ -90.2030601, 38.62491 ] } },
{ "type": "Feature", "properties": { "full_id": "n1422456528", "osm_id": "1422456528", "osm_type": "node", "public_transport": "station", "tram": null, "train": null, "railway:ref": null, "iata": null, "alt_name": null, "bus": null, "amenity": null, "wheelchair": null, "toilets:wheelchair": null, "wikipedia": "en:Convention Center station (MetroLink)", "wikidata": "Q5166219", "station": "light_rail", "railway": "station", "operator": "Bi-State Development Agency", "network": "MetroLink", "name": "Convention Center", "light_rail": "yes", "addr:street": "North 6th Street", "addr:state": "MO", "addr:postcode": "63102", "addr:housenumber": "600", "addr:city": "Saint Louis" }, "geometry": { "type": "Point", "coordinates": [ -90.1893704, 38.6302177 ] } },
{ "type": "Feature", "properties": { "full_id": "n1422456533", "osm_id": "1422456533", "osm_type": "node", "public_transport": "station", "tram": null, "train": null, "railway:ref": null, "iata": null, "alt_name": null, "bus": null, "amenity": null, "wheelchair": null, "toilets:wheelchair": null, "wikipedia": "en:Stadium station (MetroLink)", "wikidata": "Q7596465", "station": "light_rail", "railway": "station", "operator": "Bi-State Development Agency", "network": "MetroLink", "name": "Stadium", "light_rail": "yes", "addr:street": "South 8th Street", "addr:state": "MO", "addr:postcode": "63102", "addr:housenumber": "401", "addr:city": "Saint Louis" }, "geometry": { "type": "Point", "coordinates": [ -90.1945093, 38.6235105 ] } },
{ "type": "Feature", "properties": { "full_id": "n1422456546", "osm_id": "1422456546", "osm_type": "node", "public_transport": "station", "tram": null, "train": null, "railway:ref": null, "iata": null, "alt_name": null, "bus": null, "amenity": null, "wheelchair": null, "toilets:wheelchair": null, "wikipedia": "en:Union Station (St. Louis)", "wikidata": "Q2320348", "station": "light_rail", "railway": "station", "operator": "Bi-State Development Agency", "network": "MetroLink", "name": "Union Station", "light_rail": "yes", "addr:street": "South 18th Street", "addr:state": "MO", "addr:postcode": "63103", "addr:housenumber": "301", "addr:city": "Saint Louis" }, "geometry": { "type": "Point", "coordinates": [ -90.2069192, 38.6266583 ] } },
{ "type": "Feature", "properties": { "full_id": "n1422456548", "osm_id": "1422456548", "osm_type": "node", "public_transport": "station", "tram": null, "train": null, "railway:ref": null, "iata": null, "alt_name": null, "bus": null, "amenity": null, "wheelchair": null, "toilets:wheelchair": null, "wikipedia": "en:8th & Pine station", "wikidata": "Q4645285", "station": "light_rail", "railway": "station", "operator": "Bi-State Development Agency", "network": "MetroLink", "name": "8th & Pine", "light_rail": "yes", "addr:street": "North 8th Street", "addr:state": "MO", "addr:postcode": "63102", "addr:housenumber": "199", "addr:city": "Saint Louis" }, "geometry": { "type": "Point", "coordinates": [ -90.1928172, 38.6276035 ] } },
{ "type": "Feature", "properties": { "full_id": "n2591952921", "osm_id": "2591952921", "osm_type": "node", "public_transport": "station", "tram": null, "train": null, "railway:ref": null, "iata": null, "alt_name": null, "bus": null, "amenity": null, "wheelchair": null, "toilets:wheelchair": null, "wikipedia": null, "wikidata": null, "station": null, "railway": "station", "operator": null, "network": null, "name": null, "light_rail": null, "addr:street": null, "addr:state": null, "addr:postcode": null, "addr:housenumber": null, "addr:city": null }, "geometry": { "type": "Point", "coordinates": [ -90.291141, 38.636209 ] } },
{ "type": "Feature", "properties": { "full_id": "n3977288828", "osm_id": "3977288828", "osm_type": "node", "public_transport": "station", "tram": null, "train": null, "railway:ref": null, "iata": null, "alt_name": null, "bus": "yes", "amenity": "bus_station", "wheelchair": null, "toilets:wheelchair": null, "wikipedia": null, "wikidata": null, "station": null, "railway": null, "operator": null, "network": null, "name": "Gravois-Hampton Bus Station", "light_rail": null, "addr:street": null, "addr:state": null, "addr:postcode": null, "addr:housenumber": null, "addr:city": null }, "geometry": { "type": "Point", "coordinates": [ -90.2940771, 38.5646351 ] } },
{ "type": "Feature", "properties": { "full_id": "n5590658125", "osm_id": "5590658125", "osm_type": "node", "public_transport": "station", "tram": null, "train": null, "railway:ref": null, "iata": null, "alt_name": null, "bus": "yes", "amenity": "bus_station", "wheelchair": null, "toilets:wheelchair": null, "wikipedia": null, "wikidata": null, "station": null, "railway": null, "operator": null, "network": null, "name": "Broadway Taylor Transit Center", "light_rail": null, "addr:street": null, "addr:state": null, "addr:postcode": null, "addr:housenumber": null, "addr:city": null }, "geometry": { "type": "Point", "coordinates": [ -90.2204851, 38.6860456 ] } },
{ "type": "Feature", "properties": { "full_id": "n5590739851", "osm_id": "5590739851", "osm_type": "node", "public_transport": "station", "tram": null, "train": null, "railway:ref": null, "iata": null, "alt_name": null, "bus": "yes", "amenity": "bus_station", "wheelchair": null, "toilets:wheelchair": null, "wikipedia": null, "wikidata": null, "station": null, "railway": null, "operator": null, "network": null, "name": "Catalan Transit Center", "light_rail": null, "addr:street": null, "addr:state": null, "addr:postcode": null, "addr:housenumber": null, "addr:city": null }, "geometry": { "type": "Point", "coordinates": [ -90.2659477, 38.5401261 ] } },
{ "type": "Feature", "properties": { "full_id": "n5800092280", "osm_id": "5800092280", "osm_type": "node", "public_transport": "station", "tram": null, "train": null, "railway:ref": null, "iata": null, "alt_name": null, "bus": null, "amenity": null, "wheelchair": null, "toilets:wheelchair": null, "wikipedia": "en:Cortex station", "wikidata": "Q55106678", "station": "light_rail", "railway": "station", "operator": "Bi-State Development Agency", "network": "MetroLink", "name": "Cortex", "light_rail": "yes", "addr:street": "South Boyle Avenue", "addr:state": "MO", "addr:postcode": "63110", "addr:housenumber": "402", "addr:city": "Saint Louis" }, "geometry": { "type": "Point", "coordinates": [ -90.2514682, 38.6337782 ] } },
{ "type": "Feature", "properties": { "full_id": "n5901383310", "osm_id": "5901383310", "osm_type": "node", "public_transport": "station", "tram": null, "train": null, "railway:ref": null, "iata": null, "alt_name": null, "bus": "yes", "amenity": "bus_station", "wheelchair": null, "toilets:wheelchair": null, "wikipedia": null, "wikidata": null, "station": null, "railway": null, "operator": null, "network": null, "name": "Civic Center Transit Center", "light_rail": null, "addr:street": null, "addr:state": null, "addr:postcode": null, "addr:housenumber": null, "addr:city": null }, "geometry": { "type": "Point", "coordinates": [ -90.2025148, 38.6248945 ] } },
{ "type": "Feature", "properties": { "full_id": "n6033338992", "osm_id": "6033338992", "osm_type": "node", "public_transport": "station", "tram": null, "train": "yes", "railway:ref": "STL", "iata": "ZSV", "alt_name": "Saint Louis Gateway Transportation Center", "bus": null, "amenity": null, "wheelchair": null, "toilets:wheelchair": null, "wikipedia": "en:Gateway Transportation Center", "wikidata": "Q5527263", "station": null, "railway": "station", "operator": "Amtrak", "network": "Amtrak", "name": "Saint Louis", "light_rail": null, "addr:street": "South 15th Street", "addr:state": "MO", "addr:postcode": "63103", "addr:housenumber": "430", "addr:city": "Saint Louis" }, "geometry": { "type": "Point", "coordinates": [ -90.203686, 38.624223 ] } },
{ "type": "Feature", "properties": { "full_id": "n6059132998", "osm_id": "6059132998", "osm_type": "node", "public_transport": "station", "tram": "yes", "train": null, "railway:ref": null, "iata": null, "alt_name": null, "bus": null, "amenity": null, "wheelchair": null, "toilets:wheelchair": null, "wikipedia": null, "wikidata": null, "station": null, "railway": null, "operator": "Loop Trolley", "network": null, "name": "Forest Park - DeBaliviere Metrolink", "light_rail": null, "addr:street": null, "addr:state": null, "addr:postcode": null, "addr:housenumber": null, "addr:city": null }, "geometry": { "type": "Point", "coordinates": [ -90.2852206, 38.6484389 ] } },
{ "type": "Feature", "properties": { "full_id": "n6059133000", "osm_id": "6059133000", "osm_type": "node", "public_transport": "station", "tram": "yes", "train": null, "railway:ref": null, "iata": null, "alt_name": null, "bus": null, "amenity": null, "wheelchair": null, "toilets:wheelchair": null, "wikipedia": null, "wikidata": null, "station": null, "railway": null, "operator": "Loop Trolley", "network": null, "name": "Missouri History Museum/Forest Park", "light_rail": null, "addr:street": null, "addr:state": null, "addr:postcode": null, "addr:housenumber": null, "addr:city": null }, "geometry": { "type": "Point", "coordinates": [ -90.2855461, 38.6445584 ] } },
{ "type": "Feature", "properties": { "full_id": "n6059133002", "osm_id": "6059133002", "osm_type": "node", "public_transport": "station", "tram": "yes", "train": null, "railway:ref": null, "iata": null, "alt_name": null, "bus": null, "amenity": null, "wheelchair": null, "toilets:wheelchair": null, "wikipedia": null, "wikidata": null, "station": null, "railway": null, "operator": "Loop Trolley", "network": null, "name": "Crossroads School", "light_rail": null, "addr:street": null, "addr:state": null, "addr:postcode": null, "addr:housenumber": null, "addr:city": null }, "geometry": { "type": "Point", "coordinates": [ -90.2846744, 38.6517572 ] } },
{ "type": "Feature", "properties": { "full_id": "n6059133004", "osm_id": "6059133004", "osm_type": "node", "public_transport": "station", "tram": "yes", "train": null, "railway:ref": null, "iata": null, "alt_name": null, "bus": null, "amenity": null, "wheelchair": null, "toilets:wheelchair": null, "wikipedia": null, "wikidata": null, "station": null, "railway": null, "operator": "Loop Trolley", "network": null, "name": "Delmar and DeBaliviere", "light_rail": null, "addr:street": null, "addr:state": null, "addr:postcode": null, "addr:housenumber": null, "addr:city": null }, "geometry": { "type": "Point", "coordinates": [ -90.2843619, 38.653634 ] } },
{ "type": "Feature", "properties": { "full_id": "n6059133006", "osm_id": "6059133006", "osm_type": "node", "public_transport": "station", "tram": "yes", "train": null, "railway:ref": null, "iata": null, "alt_name": null, "bus": null, "amenity": null, "wheelchair": null, "toilets:wheelchair": null, "wikipedia": null, "wikidata": null, "station": null, "railway": null, "operator": "Loop Trolley", "network": null, "name": "Hamilton Avenue", "light_rail": null, "addr:street": null, "addr:state": null, "addr:postcode": null, "addr:housenumber": null, "addr:city": null }, "geometry": { "type": "Point", "coordinates": [ -90.2899422, 38.6545221 ] } },
{ "type": "Feature", "properties": { "full_id": "n6059133007", "osm_id": "6059133007", "osm_type": "node", "public_transport": "station", "tram": "yes", "train": null, "railway:ref": null, "iata": null, "alt_name": null, "bus": null, "amenity": null, "wheelchair": null, "toilets:wheelchair": null, "wikipedia": null, "wikidata": null, "station": null, "railway": null, "operator": "Loop Trolley", "network": null, "name": "Delmar Loop Metrolink", "light_rail": null, "addr:street": null, "addr:state": null, "addr:postcode": null, "addr:housenumber": null, "addr:city": null }, "geometry": { "type": "Point", "coordinates": [ -90.2943062, 38.6549327 ] } },
{ "type": "Feature", "properties": { "full_id": "n6059133010", "osm_id": "6059133010", "osm_type": "node", "public_transport": "station", "tram": "yes", "train": null, "railway:ref": null, "iata": null, "alt_name": null, "bus": null, "amenity": null, "wheelchair": null, "toilets:wheelchair": null, "wikipedia": null, "wikidata": null, "station": null, "railway": null, "operator": "Loop Trolley", "network": null, "name": "The Pageant", "light_rail": null, "addr:street": null, "addr:state": null, "addr:postcode": null, "addr:housenumber": null, "addr:city": null }, "geometry": { "type": "Point", "coordinates": [ -90.2978065, 38.6552777 ] } },
{ "type": "Feature", "properties": { "full_id": "n6413202871", "osm_id": "6413202871", "osm_type": "node", "public_transport": "station", "tram": null, "train": "yes", "railway:ref": null, "iata": null, "alt_name": null, "bus": null, "amenity": null, "wheelchair": null, "toilets:wheelchair": null, "wikipedia": null, "wikidata": null, "station": null, "railway": "station", "operator": null, "network": null, "name": "4D Theater Stop", "light_rail": null, "addr:street": null, "addr:state": null, "addr:postcode": null, "addr:housenumber": null, "addr:city": null }, "geometry": { "type": "Point", "coordinates": [ -90.2883118, 38.6358942 ] } },
{ "type": "Feature", "properties": { "full_id": "n7745146446", "osm_id": "7745146446", "osm_type": "node", "public_transport": "station", "tram": null, "train": null, "railway:ref": null, "iata": null, "alt_name": null, "bus": null, "amenity": null, "wheelchair": null, "toilets:wheelchair": null, "wikipedia": null, "wikidata": null, "station": null, "railway": "station", "operator": null, "network": null, "name": "Red Rocks Station", "light_rail": null, "addr:street": null, "addr:state": null, "addr:postcode": null, "addr:housenumber": null, "addr:city": null }, "geometry": { "type": "Point", "coordinates": [ -90.2878913, 38.633867 ] } },
{ "type": "Feature", "properties": { "full_id": "n7745146447", "osm_id": "7745146447", "osm_type": "node", "public_transport": "station", "tram": null, "train": null, "railway:ref": null, "iata": null, "alt_name": null, "bus": null, "amenity": null, "wheelchair": null, "toilets:wheelchair": null, "wikipedia": null, "wikidata": null, "station": null, "railway": "station", "operator": null, "network": null, "name": "River's Edge Station", "light_rail": null, "addr:street": null, "addr:state": null, "addr:postcode": null, "addr:housenumber": null, "addr:city": null }, "geometry": { "type": "Point", "coordinates": [ -90.2919927, 38.6339462 ] } }
]
}
