{
"type": "FeatureCollection",
"name": "osm financial",
"crs": { "type": "name", "properties": { "name": "urn:ogc:def:crs:OGC:1.3:CRS84" } },
"features": [
{ "type": "Feature", "properties": { "full_id": "w139761157", "osm_id": "139761157", "osm_type": "way", "amenity": "bank", "operator": null, "website": null, "opening_hours": null, "building:levels": null, "phone": null, "landuse": null, "branch": null, "atm": null, "name": "U.S. Bank", "drive_through": "yes", "building": "yes", "brand:wikipedia": "en:U.S. Bancorp", "brand:wikidata": "Q739084", "brand": "U.S. Bank", "addr:street": "Gravois Avenue", "addr:state": "MO", "addr:postcode": "63116", "addr:housenumber": "3881", "addr:city": "St. Louis" }, "geometry": { "type": "MultiPolygon", "coordinates": [ [ [ [ -90.250749, 38.5921014 ], [ -90.2505607, 38.5919536 ], [ -90.2504576, 38.5919464 ], [ -90.2504019, 38.5919898 ], [ -90.2503848, 38.592003 ], [ -90.2504733, 38.5920725 ], [ -90.2504435, 38.5920956 ], [ -90.2504695, 38.5921161 ], [ -90.2504898, 38.5921003 ], [ -90.2506195, 38.5922022 ], [ -90.250749, 38.5921014 ] ] ] ] } },
{ "type": "Feature", "properties": { "full_id": "w267439103", "osm_id": "267439103", "osm_type": "way", "amenity": "bank", "operator": null, "website": null, "opening_hours": null, "building:levels": null, "phone": null, "landuse": null, "branch": null, "atm": null, "name": "Jefferson Bank and Trust Company", "drive_through": null, "building": "yes", "brand:wikipedia": null, "brand:wikidata": null, "brand": null, "addr:street": null, "addr:state": null, "addr:postcode": null, "addr:housenumber": null, "addr:city": null }, "geometry": { "type": "MultiPolygon", "coordinates": [ [ [ [ -90.2133349, 38.6308957 ], [ -90.2137385, 38.6309886 ], [ -90.2136594, 38.6311912 ], [ -90.2136239, 38.6311831 ], [ -90.2135655, 38.6313316 ], [ -90.2132061, 38.6312519 ], [ -90.2132732, 38.6310906 ], [ -90.2132544, 38.6310864 ], [ -90.2133349, 38.6308957 ] ] ] ] } },
{ "type": "Feature", "properties": { "full_id": "w269701510", "osm_id": "269701510", "osm_type": "way", "amenity": "bank", "operator": null, "website": null, "opening_hours": null, "building:levels": null, "phone": null, "landuse": null, "branch": null, "atm": "yes", "name": "U.S. Bank", "drive_through": null, "building": "yes", "brand:wikipedia": "en:U.S. Bancorp", "brand:wikidata": "Q739084", "brand": "U.S. Bank", "addr:street": null, "addr:state": null, "addr:postcode": null, "addr:housenumber": null, "addr:city": null }, "geometry": { "type": "MultiPolygon", "coordinates": [ [ [ [ -90.1977002, 38.6298815 ], [ -90.1980194, 38.6299507 ], [ -90.197963, 38.6301267 ], [ -90.197641, 38.6300568 ], [ -90.1977002, 38.6298815 ] ] ] ] } },
{ "type": "Feature", "properties": { "full_id": "w271623116", "osm_id": "271623116", "osm_type": "way", "amenity": "bank", "operator": null, "website": null, "opening_hours": null, "building:levels": null, "phone": null, "landuse": "commercial", "branch": "Operation center", "atm": "yes", "name": "U.S. Bank", "drive_through": null, "building": "yes", "brand:wikipedia": "en:U.S. Bancorp", "brand:wikidata": "Q739084", "brand": "U.S. Bank", "addr:street": null, "addr:state": null, "addr:postcode": null, "addr:housenumber": null, "addr:city": null }, "geometry": { "type": "MultiPolygon", "coordinates": [ [ [ [ -90.1938245, 38.6328925 ], [ -90.1938803, 38.6329051 ], [ -90.1938942, 38.6328716 ], [ -90.1941994, 38.6329303 ], [ -90.1941887, 38.6329722 ], [ -90.1942375, 38.6329847 ], [ -90.19395, 38.6338228 ], [ -90.1931834, 38.6336657 ], [ -90.193199, 38.6336301 ], [ -90.1931456, 38.6336176 ], [ -90.1932288, 38.6333735 ], [ -90.19328, 38.6333849 ], [ -90.1932961, 38.633343 ], [ -90.1935723, 38.6334059 ], [ -90.1936791, 38.6333598 ], [ -90.1938245, 38.6328925 ] ] ] ] } },
{ "type": "Feature", "properties": { "full_id": "w394753687", "osm_id": "394753687", "osm_type": "way", "amenity": "bank", "operator": null, "website": null, "opening_hours": null, "building:levels": null, "phone": null, "landuse": null, "branch": null, "atm": "yes", "name": "First Bank", "drive_through": null, "building": "yes", "brand:wikipedia": null, "brand:wikidata": null, "brand": null, "addr:street": "Gravois Avenue", "addr:state": "MO", "addr:postcode": "63116", "addr:housenumber": "7256", "addr:city": "Saint Louis" }, "geometry": { "type": "MultiPolygon", "coordinates": [ [ [ [ -90.2931654, 38.564767 ], [ -90.2930167, 38.5648459 ], [ -90.2928748, 38.5646882 ], [ -90.2930184, 38.5646093 ], [ -90.2931654, 38.564767 ] ] ] ] } },
{ "type": "Feature", "properties": { "full_id": "w394755099", "osm_id": "394755099", "osm_type": "way", "amenity": "bank", "operator": null, "website": null, "opening_hours": null, "building:levels": null, "phone": "314-534-7610", "landuse": null, "branch": null, "atm": null, "name": "St. Louis Community Credit Union", "drive_through": null, "building": "yes", "brand:wikipedia": null, "brand:wikidata": null, "brand": null, "addr:street": "Gravois Avenue", "addr:state": "MO", "addr:postcode": "63116", "addr:housenumber": "7224", "addr:city": "Saint Louis" }, "geometry": { "type": "MultiPolygon", "coordinates": [ [ [ [ -90.2921665, 38.5653678 ], [ -90.2921061, 38.5653069 ], [ -90.2920833, 38.5653143 ], [ -90.2920069, 38.5652335 ], [ -90.2918969, 38.5652996 ], [ -90.2918754, 38.5652849 ], [ -90.2918325, 38.5653122 ], [ -90.2919264, 38.5654055 ], [ -90.2918942, 38.5654286 ], [ -90.2919492, 38.5654831 ], [ -90.2920149, 38.5654422 ], [ -90.2920297, 38.5654537 ], [ -90.2921665, 38.5653678 ] ] ] ] } },
{ "type": "Feature", "properties": { "full_id": "w440980655", "osm_id": "440980655", "osm_type": "way", "amenity": "bank", "operator": null, "website": null, "opening_hours": null, "building:levels": "5", "phone": null, "landuse": null, "branch": null, "atm": "yes", "name": "Bank of America", "drive_through": null, "building": "yes", "brand:wikipedia": "en:Bank of America", "brand:wikidata": "Q487907", "brand": "Bank of America", "addr:street": "Lindell Boulevard", "addr:state": "MO", "addr:postcode": "63108", "addr:housenumber": "4625", "addr:city": "Saint Louis" }, "geometry": { "type": "MultiPolygon", "coordinates": [ [ [ [ -90.2607614, 38.6436315 ], [ -90.2608582, 38.6433563 ], [ -90.2603702, 38.6432521 ], [ -90.2602735, 38.6435267 ], [ -90.2607614, 38.6436315 ] ] ] ] } },
{ "type": "Feature", "properties": { "full_id": "w527183214", "osm_id": "527183214", "osm_type": "way", "amenity": "bank", "operator": null, "website": null, "opening_hours": null, "building:levels": null, "phone": null, "landuse": null, "branch": null, "atm": null, "name": "Simmons Bank", "drive_through": null, "building": "yes", "brand:wikipedia": "en:Simmons Bank", "brand:wikidata": "Q28402389", "brand": "Simmons Bank", "addr:street": null, "addr:state": null, "addr:postcode": null, "addr:housenumber": null, "addr:city": null }, "geometry": { "type": "MultiPolygon", "coordinates": [ [ [ [ -90.2568987, 38.6272341 ], [ -90.2570063, 38.6272568 ], [ -90.2570364, 38.6271701 ], [ -90.2570149, 38.6270692 ], [ -90.2569532, 38.6270768 ], [ -90.2568987, 38.6272341 ] ] ] ] } },
{ "type": "Feature", "properties": { "full_id": "w538542414", "osm_id": "538542414", "osm_type": "way", "amenity": "bank", "operator": null, "website": null, "opening_hours": null, "building:levels": null, "phone": null, "landuse": null, "branch": null, "atm": null, "name": "Bank of America", "drive_through": null, "building": "yes", "brand:wikipedia": "en:Bank of America", "brand:wikidata": "Q487907", "brand": "Bank of America", "addr:street": null, "addr:state": null, "addr:postcode": null, "addr:housenumber": null, "addr:city": null }, "geometry": { "type": "MultiPolygon", "coordinates": [ [ [ [ -90.2000571, 38.6499812 ], [ -90.2001081, 38.6500844 ], [ -90.200206, 38.6501179 ], [ -90.2003032, 38.6500933 ], [ -90.2002194, 38.6499278 ], [ -90.2000571, 38.6499812 ] ] ] ] } },
{ "type": "Feature", "properties": { "full_id": "w567166179", "osm_id": "567166179", "osm_type": "way", "amenity": "bureau_de_change", "operator": null, "website": null, "opening_hours": null, "building:levels": null, "phone": null, "landuse": null, "branch": null, "atm": null, "name": null, "drive_through": null, "building": "yes", "brand:wikipedia": null, "brand:wikidata": null, "brand": null, "addr:street": null, "addr:state": null, "addr:postcode": null, "addr:housenumber": null, "addr:city": null }, "geometry": { "type": "MultiPolygon", "coordinates": [ [ [ [ -90.2291588, 38.641712 ], [ -90.2292135, 38.6416038 ], [ -90.2292876, 38.641629 ], [ -90.2292973, 38.6416126 ], [ -90.2294181, 38.6416529 ], [ -90.2293681, 38.6417447 ], [ -90.2293504, 38.6417397 ], [ -90.2293375, 38.6417724 ], [ -90.2291588, 38.641712 ] ] ] ] } },
{ "type": "Feature", "properties": { "full_id": "w569791252", "osm_id": "569791252", "osm_type": "way", "amenity": "bank", "operator": null, "website": null, "opening_hours": null, "building:levels": null, "phone": null, "landuse": null, "branch": null, "atm": null, "name": "First Bank", "drive_through": null, "building": "yes", "brand:wikipedia": null, "brand:wikidata": null, "brand": null, "addr:street": null, "addr:state": null, "addr:postcode": null, "addr:housenumber": null, "addr:city": null }, "geometry": { "type": "MultiPolygon", "coordinates": [ [ [ [ -90.2271187, 38.7271414 ], [ -90.2268531, 38.7271602 ], [ -90.2268692, 38.7273339 ], [ -90.2270275, 38.7273255 ], [ -90.2270275, 38.7272899 ], [ -90.2271321, 38.7272795 ], [ -90.2271187, 38.7271414 ] ] ] ] } },
{ "type": "Feature", "properties": { "full_id": "w615693271", "osm_id": "615693271", "osm_type": "way", "amenity": "bank", "operator": null, "website": null, "opening_hours": null, "building:levels": null, "phone": null, "landuse": null, "branch": null, "atm": null, "name": "U.S. Bank", "drive_through": null, "building": "yes", "brand:wikipedia": "en:U.S. Bancorp", "brand:wikidata": "Q739084", "brand": "U.S. Bank", "addr:street": "Lindell Boulevard", "addr:state": "MO", "addr:postcode": "63108", "addr:housenumber": "4301", "addr:city": "Saint Louis" }, "geometry": { "type": "MultiPolygon", "coordinates": [ [ [ [ -90.2510068, 38.6413191 ], [ -90.2509725, 38.6414115 ], [ -90.2508693, 38.6413881 ], [ -90.2508594, 38.6414147 ], [ -90.2506889, 38.6413761 ], [ -90.2506796, 38.6413562 ], [ -90.2506088, 38.641342 ], [ -90.2506512, 38.6412128 ], [ -90.2508071, 38.641244 ], [ -90.2508029, 38.6412567 ], [ -90.250819, 38.6412766 ], [ -90.2510068, 38.6413191 ] ] ] ] } },
{ "type": "Feature", "properties": { "full_id": "w618084771", "osm_id": "618084771", "osm_type": "way", "amenity": "bank", "operator": null, "website": null, "opening_hours": null, "building:levels": null, "phone": null, "landuse": null, "branch": null, "atm": "yes", "name": "Bank of America", "drive_through": "yes", "building": "retail", "brand:wikipedia": "en:Bank of America", "brand:wikidata": "Q487907", "brand": "Bank of America", "addr:street": "South Jefferson Avenue", "addr:state": "MO", "addr:postcode": "63118", "addr:housenumber": "2604", "addr:city": "Saint Louis" }, "geometry": { "type": "MultiPolygon", "coordinates": [ [ [ [ -90.222842, 38.6046569 ], [ -90.2227967, 38.6048673 ], [ -90.222752, 38.6048633 ], [ -90.2227469, 38.6048864 ], [ -90.2226351, 38.6049372 ], [ -90.2225752, 38.6049197 ], [ -90.2225711, 38.6049285 ], [ -90.2223282, 38.6048554 ], [ -90.2223404, 38.60483 ], [ -90.2223089, 38.6048204 ], [ -90.2222733, 38.6047617 ], [ -90.222318, 38.6047227 ], [ -90.2223292, 38.6046664 ], [ -90.2223831, 38.6046711 ], [ -90.2223963, 38.6046012 ], [ -90.2225626, 38.6046219 ], [ -90.222842, 38.6046569 ] ] ] ] } },
{ "type": "Feature", "properties": { "full_id": "w619100993", "osm_id": "619100993", "osm_type": "way", "amenity": "bank", "operator": null, "website": null, "opening_hours": null, "building:levels": null, "phone": null, "landuse": null, "branch": null, "atm": null, "name": "Busey Bank", "drive_through": null, "building": "yes", "brand:wikipedia": null, "brand:wikidata": "Q5001347", "brand": "Busey Bank", "addr:street": "South Grand Boulevard", "addr:state": "MO", "addr:postcode": "63118", "addr:housenumber": "3754", "addr:city": "Saint Louis" }, "geometry": { "type": "MultiPolygon", "coordinates": [ [ [ [ -90.2442996, 38.5883844 ], [ -90.2442683, 38.5885837 ], [ -90.2441872, 38.5885759 ], [ -90.244179, 38.5886279 ], [ -90.2441108, 38.5886213 ], [ -90.2441435, 38.5884133 ], [ -90.2441294, 38.5884119 ], [ -90.2441362, 38.5883687 ], [ -90.2442996, 38.5883844 ] ] ] ] } },
{ "type": "Feature", "properties": { "full_id": "w619116864", "osm_id": "619116864", "osm_type": "way", "amenity": "bank", "operator": null, "website": null, "opening_hours": null, "building:levels": null, "phone": null, "landuse": null, "branch": null, "atm": null, "name": "Midwest BankCentre", "drive_through": null, "building": "yes", "brand:wikipedia": null, "brand:wikidata": null, "brand": null, "addr:street": "Meramec Street", "addr:state": "MO", "addr:postcode": "63118", "addr:housenumber": null, "addr:city": "Saint Louis" }, "geometry": { "type": "MultiPolygon", "coordinates": [ [ [ [ -90.2401816, 38.5805314 ], [ -90.2401357, 38.5807516 ], [ -90.2400463, 38.5807403 ], [ -90.2400593, 38.580678 ], [ -90.2398809, 38.5806553 ], [ -90.2399138, 38.5804973 ], [ -90.2401816, 38.5805314 ] ] ] ] } },
{ "type": "Feature", "properties": { "full_id": "w620711671", "osm_id": "620711671", "osm_type": "way", "amenity": "bank", "operator": null, "website": null, "opening_hours": null, "building:levels": null, "phone": null, "landuse": null, "branch": null, "atm": null, "name": "U.S. Bank", "drive_through": null, "building": "yes", "brand:wikipedia": "en:U.S. Bancorp", "brand:wikidata": "Q739084", "brand": "U.S. Bank", "addr:street": null, "addr:state": null, "addr:postcode": null, "addr:housenumber": null, "addr:city": null }, "geometry": { "type": "MultiPolygon", "coordinates": [ [ [ [ -90.2931788, 38.5813434 ], [ -90.2931422, 38.5815654 ], [ -90.2928868, 38.5815397 ], [ -90.2929118, 38.5813882 ], [ -90.2928675, 38.5813838 ], [ -90.2928792, 38.5813132 ], [ -90.2931788, 38.5813434 ] ] ] ] } },
{ "type": "Feature", "properties": { "full_id": "w621899967", "osm_id": "621899967", "osm_type": "way", "amenity": "bureau_de_change", "operator": null, "website": null, "opening_hours": null, "building:levels": null, "phone": null, "landuse": null, "branch": null, "atm": null, "name": null, "drive_through": null, "building": "yes", "brand:wikipedia": null, "brand:wikidata": null, "brand": null, "addr:street": null, "addr:state": null, "addr:postcode": null, "addr:housenumber": null, "addr:city": null }, "geometry": { "type": "MultiPolygon", "coordinates": [ [ [ [ -90.2354139, 38.6688133 ], [ -90.235337, 38.6689198 ], [ -90.2351342, 38.6688305 ], [ -90.2351944, 38.6687472 ], [ -90.2353197, 38.6688025 ], [ -90.2353365, 38.6687792 ], [ -90.2354139, 38.6688133 ] ] ] ] } },
{ "type": "Feature", "properties": { "full_id": "w622922568", "osm_id": "622922568", "osm_type": "way", "amenity": "bank", "operator": null, "website": null, "opening_hours": null, "building:levels": null, "phone": null, "landuse": null, "branch": null, "atm": null, "name": null, "drive_through": null, "building": "yes", "brand:wikipedia": null, "brand:wikidata": null, "brand": null, "addr:street": null, "addr:state": null, "addr:postcode": null, "addr:housenumber": null, "addr:city": null }, "geometry": { "type": "MultiPolygon", "coordinates": [ [ [ [ -90.2549699, 38.5501917 ], [ -90.2551845, 38.5503396 ], [ -90.2553548, 38.5503973 ], [ -90.2553186, 38.5504476 ], [ -90.2552046, 38.5504319 ], [ -90.2550852, 38.5505347 ], [ -90.2547955, 38.550348 ], [ -90.2549699, 38.5501917 ] ] ] ] } },
{ "type": "Feature", "properties": { "full_id": "w623203517", "osm_id": "623203517", "osm_type": "way", "amenity": "bank", "operator": null, "website": "https://www.peoplesnationalbank.com/", "opening_hours": "Mo-Fr 08:30-17:00, Sa 09:00-12:00", "building:levels": null, "phone": "+13142562000", "landuse": null, "branch": null, "atm": "yes", "name": "Peoples National Bank", "drive_through": "yes", "building": "yes", "brand:wikipedia": null, "brand:wikidata": null, "brand": null, "addr:street": "Hampton Avenue", "addr:state": "MO", "addr:postcode": "63139", "addr:housenumber": "3280", "addr:city": "Saint Louis" }, "geometry": { "type": "MultiPolygon", "coordinates": [ [ [ [ -90.2916095, 38.6020692 ], [ -90.2915885, 38.6021746 ], [ -90.2915725, 38.6021727 ], [ -90.2915528, 38.602272 ], [ -90.2915702, 38.6022741 ], [ -90.2915636, 38.6023073 ], [ -90.2915397, 38.6023044 ], [ -90.2915375, 38.6023154 ], [ -90.2913325, 38.6022905 ], [ -90.2913455, 38.602225 ], [ -90.2914487, 38.6022375 ], [ -90.2914854, 38.6020532 ], [ -90.291507, 38.6020559 ], [ -90.2915094, 38.6020436 ], [ -90.2915448, 38.6020479 ], [ -90.2915422, 38.6020611 ], [ -90.2916095, 38.6020692 ] ] ] ] } },
{ "type": "Feature", "properties": { "full_id": "w624361042", "osm_id": "624361042", "osm_type": "way", "amenity": "bank", "operator": null, "website": null, "opening_hours": null, "building:levels": null, "phone": null, "landuse": null, "branch": null, "atm": null, "name": "Bank of America", "drive_through": null, "building": "yes", "brand:wikipedia": "en:Bank of America", "brand:wikidata": "Q487907", "brand": "Bank of America", "addr:street": null, "addr:state": null, "addr:postcode": null, "addr:housenumber": null, "addr:city": null }, "geometry": { "type": "MultiPolygon", "coordinates": [ [ [ [ -90.2845144, 38.5713889 ], [ -90.2844876, 38.5715178 ], [ -90.2844576, 38.5715488 ], [ -90.2846002, 38.5716332 ], [ -90.2846043, 38.5716479 ], [ -90.2844773, 38.5717853 ], [ -90.284273, 38.5716699 ], [ -90.2842516, 38.5715608 ], [ -90.2843211, 38.5714793 ], [ -90.2843731, 38.5715064 ], [ -90.2844098, 38.5714633 ], [ -90.2844393, 38.5713459 ], [ -90.2845144, 38.5713889 ] ] ] ] } },
{ "type": "Feature", "properties": { "full_id": "w624381547", "osm_id": "624381547", "osm_type": "way", "amenity": "bank", "operator": null, "website": null, "opening_hours": null, "building:levels": null, "phone": null, "landuse": null, "branch": null, "atm": null, "name": null, "drive_through": null, "building": "yes", "brand:wikipedia": null, "brand:wikidata": null, "brand": null, "addr:street": "Gravois Avenue", "addr:state": "MO", "addr:postcode": "63116", "addr:housenumber": "4914", "addr:city": "Saint Louis" }, "geometry": { "type": "MultiPolygon", "coordinates": [ [ [ [ -90.2672626, 38.5809003 ], [ -90.267174, 38.5811624 ], [ -90.2671558, 38.5811525 ], [ -90.2671308, 38.5811809 ], [ -90.2670728, 38.5811497 ], [ -90.2670969, 38.5811223 ], [ -90.2668142, 38.5809705 ], [ -90.2668406, 38.5809405 ], [ -90.2667623, 38.5808985 ], [ -90.2667085, 38.5809598 ], [ -90.2666221, 38.5809133 ], [ -90.2667587, 38.5807578 ], [ -90.2668416, 38.5808023 ], [ -90.2668322, 38.580813 ], [ -90.2669088, 38.5808541 ], [ -90.2669933, 38.5807577 ], [ -90.2670656, 38.5807965 ], [ -90.2670759, 38.5807847 ], [ -90.2671503, 38.5808245 ], [ -90.2671409, 38.5808352 ], [ -90.2672626, 38.5809003 ] ] ] ] } },
{ "type": "Feature", "properties": { "full_id": "w624499779", "osm_id": "624499779", "osm_type": "way", "amenity": "bank", "operator": null, "website": null, "opening_hours": null, "building:levels": null, "phone": null, "landuse": null, "branch": null, "atm": null, "name": null, "drive_through": null, "building": "yes", "brand:wikipedia": null, "brand:wikidata": null, "brand": null, "addr:street": null, "addr:state": null, "addr:postcode": null, "addr:housenumber": null, "addr:city": null }, "geometry": { "type": "MultiPolygon", "coordinates": [ [ [ [ -90.2977154, 38.5938779 ], [ -90.2976853, 38.5940609 ], [ -90.2976438, 38.5940567 ], [ -90.2976559, 38.5941175 ], [ -90.2976422, 38.5941916 ], [ -90.2975539, 38.5941817 ], [ -90.2975673, 38.5941091 ], [ -90.2975499, 38.5940483 ], [ -90.2974421, 38.5940392 ], [ -90.2974466, 38.5940064 ], [ -90.2974641, 38.5939959 ], [ -90.2974788, 38.5938984 ], [ -90.2974681, 38.5938879 ], [ -90.2974737, 38.5938536 ], [ -90.2977154, 38.5938779 ] ] ] ] } },
{ "type": "Feature", "properties": { "full_id": "w625691612", "osm_id": "625691612", "osm_type": "way", "amenity": "bank", "operator": null, "website": null, "opening_hours": null, "building:levels": null, "phone": null, "landuse": null, "branch": null, "atm": null, "name": "Simmons Bank", "drive_through": null, "building": "yes", "brand:wikipedia": "en:Simmons Bank", "brand:wikidata": "Q28402389", "brand": "Simmons Bank", "addr:street": "North Grand Boulevard", "addr:state": "MO", "addr:postcode": "63106", "addr:housenumber": "1023", "addr:city": "Saint Louis" }, "geometry": { "type": "MultiPolygon", "coordinates": [ [ [ [ -90.2293521, 38.643254 ], [ -90.229426, 38.6431502 ], [ -90.2291211, 38.6430178 ], [ -90.2290472, 38.6431216 ], [ -90.2293521, 38.643254 ] ] ] ] } },
{ "type": "Feature", "properties": { "full_id": "w627042811", "osm_id": "627042811", "osm_type": "way", "amenity": "bank", "operator": null, "website": null, "opening_hours": null, "building:levels": null, "phone": null, "landuse": null, "branch": null, "atm": "yes", "name": "Commerce Bank", "drive_through": "yes", "building": "yes", "brand:wikipedia": "en:Commerce Bancshares", "brand:wikidata": "Q5152411", "brand": "Commerce Bank", "addr:street": null, "addr:state": null, "addr:postcode": null, "addr:housenumber": null, "addr:city": null }, "geometry": { "type": "MultiPolygon", "coordinates": [ [ [ [ -90.2370731, 38.6695889 ], [ -90.2369054, 38.6698195 ], [ -90.2367816, 38.6697646 ], [ -90.2369494, 38.669534 ], [ -90.2370731, 38.6695889 ] ] ] ] } },
{ "type": "Feature", "properties": { "full_id": "w628179793", "osm_id": "628179793", "osm_type": "way", "amenity": "bank", "operator": null, "website": "https://locations.usbank.com/index/missouri/st-louis/southwest-avenue-branch.html", "opening_hours": "Mo-Fr 09:30-16:00, Sa 09:30-12:00", "building:levels": null, "phone": "+13147526291", "landuse": null, "branch": null, "atm": "yes", "name": "U.S. Bank", "drive_through": "yes", "building": "yes", "brand:wikipedia": "en:U.S. Bancorp", "brand:wikidata": "Q739084", "brand": "U.S. Bank", "addr:street": "Southwest Avenue", "addr:state": "MO", "addr:postcode": "63139", "addr:housenumber": "5375", "addr:city": "Saint Louis" }, "geometry": { "type": "MultiPolygon", "coordinates": [ [ [ [ -90.27816, 38.6105685 ], [ -90.278068, 38.611014 ], [ -90.278042, 38.6110107 ], [ -90.2780661, 38.6110903 ], [ -90.2780125, 38.6110819 ], [ -90.2779829, 38.6110023 ], [ -90.2776254, 38.6109572 ], [ -90.2776772, 38.6107068 ], [ -90.27816, 38.6105685 ] ] ] ] } },
{ "type": "Feature", "properties": { "full_id": "w632298555", "osm_id": "632298555", "osm_type": "way", "amenity": "bank", "operator": null, "website": null, "opening_hours": null, "building:levels": null, "phone": null, "landuse": null, "branch": null, "atm": null, "name": "Bank of America", "drive_through": null, "building": "yes", "brand:wikipedia": null, "brand:wikidata": null, "brand": null, "addr:street": null, "addr:state": null, "addr:postcode": null, "addr:housenumber": null, "addr:city": null }, "geometry": { "type": "MultiPolygon", "coordinates": [ [ [ [ -90.2416109, 38.7224555 ], [ -90.241745, 38.7226679 ], [ -90.2414755, 38.7227757 ], [ -90.2413373, 38.7225591 ], [ -90.2416109, 38.7224555 ] ] ] ] } },
{ "type": "Feature", "properties": { "full_id": "w637374175", "osm_id": "637374175", "osm_type": "way", "amenity": "bank", "operator": "St Louis Community Credit Union", "website": null, "opening_hours": null, "building:levels": null, "phone": null, "landuse": null, "branch": null, "atm": null, "name": "St Louis Community Credit Union", "drive_through": null, "building": "yes", "brand:wikipedia": null, "brand:wikidata": null, "brand": null, "addr:street": null, "addr:state": null, "addr:postcode": null, "addr:housenumber": null, "addr:city": null }, "geometry": { "type": "MultiPolygon", "coordinates": [ [ [ [ -90.2294225, 38.6018251 ], [ -90.2293892, 38.6019986 ], [ -90.229341, 38.6020217 ], [ -90.229357, 38.6020499 ], [ -90.2291532, 38.6021238 ], [ -90.2290834, 38.6020259 ], [ -90.2293113, 38.6019345 ], [ -90.2293352, 38.6018139 ], [ -90.2294225, 38.6018251 ] ] ] ] } },
{ "type": "Feature", "properties": { "full_id": "w761810014", "osm_id": "761810014", "osm_type": "way", "amenity": "bank", "operator": null, "website": null, "opening_hours": null, "building:levels": null, "phone": null, "landuse": null, "branch": null, "atm": "yes", "name": "PNC Bank", "drive_through": "yes", "building": "yes", "brand:wikipedia": "en:PNC Financial Services", "brand:wikidata": "Q38928", "brand": "PNC Bank", "addr:street": "South Grand Boulevard", "addr:state": "MO", "addr:postcode": null, "addr:housenumber": "4131", "addr:city": "Saint Louis" }, "geometry": { "type": "MultiPolygon", "coordinates": [ [ [ [ -90.2449091, 38.5814727 ], [ -90.244475, 38.5815199 ], [ -90.2445179, 38.581761 ], [ -90.2448114, 38.581729 ], [ -90.2448366, 38.5818709 ], [ -90.2449425, 38.5818594 ], [ -90.244888, 38.5815535 ], [ -90.2449228, 38.5815497 ], [ -90.2449091, 38.5814727 ] ] ] ] } },
{ "type": "Feature", "properties": { "full_id": "w1093698511", "osm_id": "1093698511", "osm_type": "way", "amenity": "bank", "operator": null, "website": null, "opening_hours": null, "building:levels": null, "phone": null, "landuse": null, "branch": null, "atm": null, "name": "Bank of America", "drive_through": null, "building": "yes", "brand:wikipedia": null, "brand:wikidata": "Q487907", "brand": "Bank of America", "addr:street": null, "addr:state": null, "addr:postcode": null, "addr:housenumber": null, "addr:city": null }, "geometry": { "type": "MultiPolygon", "coordinates": [ [ [ [ -90.2951585, 38.5915785 ], [ -90.295218, 38.5912466 ], [ -90.2958671, 38.5913176 ], [ -90.2958441, 38.5914459 ], [ -90.2958846, 38.5914503 ], [ -90.2958638, 38.5915667 ], [ -90.2957976, 38.5915595 ], [ -90.295782, 38.5916466 ], [ -90.2951585, 38.5915785 ] ] ] ] } }
]
}
